CIC_OEM_VERS = 2.0
CREATION_DATE = 2025-02-05T13:42:28.616757
ORIGINATOR = ISAE-SUPAERO


META_START
OBJECT_NAME = PLEIADES-NEO3
OBJECT_ID = PLEIADES-NEO3
CENTER_NAME = Earth
REF_FRAME = EME2000
TIME_SYSTEM = UTC
START_TIME = 2025-02-05T05:08:25.858
USEABLE_START_TIME = 2025-02-05T05:08:25.858
USEABLE_STOP_TIME = 2025-02-05T23:55:25.858
STOP_TIME = 2025-02-05T23:55:25.858
INTERPOLATION = lagrange
INTERPOLATION_DEGREE = 5
META_STOP



60711 18505.858 -2746.4686 6441.0485 14.683520000000001 0.9596134700000001 0.39126974000000003 7.4733813
60711 18925.858 -2080.0806000000002 5950.281 3045.7254 2.1583612 -2.6862152000000004 6.7116832
60711 19345.858 -994.7616 4261.0782 5461.6965 2.921057 -5.218985 4.5960835
60711 19765.858 290.69485 1714.7621000000001 6776.418900000001 3.0954535 -6.6986957 1.5577528
60711 20185.858 1517.7654 -1176.0961000000002 6726.1546 2.6477987 -6.831955700000001 -1.7932895000000002
60711 20605.858 2439.6468 -3830.3528 5320.2570000000005 1.6667276 -5.5907573 -4.7874419
60711 21025.858 2871.4041 -5715.2838 2842.2426 0.34635762999999997 -3.2162037 -6.8179834
60711 21445.858 2723.6987000000004 -6446.290400000001 -209.20323000000002 -1.0423271 -0.19700375 -7.4709244
60711 21865.858 2026.0453 -5876.2874 -3219.8335 -2.2222112000000003 2.8639186 -6.6170025
60711 22285.858 920.23358 -4122.3856000000005 -5579.820900000001 -2.9530436 5.3439053 -4.4288411
60711 22705.858 -370.70114 -1539.3643000000002 -6814.863 -3.0891295 6.745589 -1.3521394
60711 23125.858 -1587.1928 1352.8858 -6677.434 -2.6046437 6.791633200000001 1.9956212
60711 23545.858 -2484.6313 3973.0476000000003 -5194.4726 -1.5954624 5.4714998 4.9458457
60711 23965.858 -2882.1268999999998 5793.2568 -2664.9972000000002 -0.26332812 3.0468312 6.9007160999999995
60711 24385.858 -2698.1664 6445.0172 404.44646 1.1246302000000001 0.0028145125 7.464333
60711 24805.858 -1969.5667 5795.8673 3392.1441 2.2852337000000005 -3.0407623 6.517773
60711 25225.858 -843.1240600000001 3976.4737000000005 5694.2203 2.9839436 -5.4673382 4.2572787
60711 25645.858 452.6358 1357.8417 6847.808 3.0807478 -6.7886195 1.1426815
60711 26065.858 1657.4888999999998 -1533.6634 6622.0373 2.5585864000000003 -6.7451274 -2.1993305
60711 26485.858 2529.2498 -4116.9074 5062.303900000001 1.5214262 -5.3453686 -5.1013361999999995
60711 26905.858 2891.9874 -5871.603400000001 2481.2709 0.17565529000000002 -2.8658378 -6.9786632
60711 27325.858 2671.3617000000004 -6441.9539 -601.57839 -1.2075857 0.19550935000000003 -7.4475721
60711 27745.858 1911.9471 -5712.9352 -3562.4367 -2.3466707 3.2162640000000002 -6.410024000000001
60711 28165.858 767.0302700000001 -3832.242 -5803.7222 -3.0113951 5.5844281 -4.0804831
60711 28585.858 -532.19345 -1180.7045 -6874.7257 -3.0695707000000003 6.8257354999999995 -0.93276141
60711 29005.858 -1724.5085000000001 1708.0602 -6560.9327 -2.5110245 6.6951197 2.4016504
60711 29425.858 -2570.1029 4253.287200000001 -4924.8327 -1.446437 5.2172751 5.2564456
60711 29845.858 -2897.6286 5941.2955 -2293.0149 -0.08746021500000001 2.6837749 7.0560757999999995
60711 30265.858 -2640.4797000000003 6430.2505 801.9704499999999 1.2910439 -0.39561264999999995 7.4281914
60711 30685.858 -1850.0097 5620.5071 3734.6852000000003 2.4076999999999997 -3.3919891 6.2976174
60711 31105.858 -683.9606600000001 3670.606 5909.6867999999995 3.0408512 -5.7086423 3.8951118
60711 31525.858 619.17979 983.08494 6891.649 3.0576881 -6.865967800000001 0.70773374
60711 31945.858 1797.6591 -1902.1828 6483.0375 2.4580091000000004 -6.6380139 -2.6198006
60711 32365.858 2614.076 -4404.348 4765.3951 1.362971 -5.0727478 -5.4192191
60711 32785.858 2903.6775000000002 -6018.911099999999 2084.9618 -0.007669024000000001 -2.4836109000000004 -7.1254456
60711 33205.858 2607.8801000000003 -6420.0842999999995 -1016.9976 -1.3765653 0.60573651 -7.3914964
60711 33625.858 1786.8808000000001 -5528.331099999999 -3913.5964 -2.46619 3.5681889 -6.1656955
60711 34045.858 606.56732 -3525.1427000000003 -6021.8462 -3.0580506 5.806781699999999 -3.7027928
60711 34465.858 -695.4039 -815.11679 -6919.7295 -3.0361322 6.8779840000000005 -0.50016771
60711 34885.858 -1858.0256000000002 2058.1478 -6427.625900000001 -2.4055859 6.5708364 2.8043766000000003
60711 35305.858 -2647.6857000000005 4518.0993 -4642.3787999999995 -1.2898340000000001 4.942196200000001 5.5527076
60711 35725.858 -2903.4985 6066.9454000000005 -1919.064 0.090068963 2.3115703 7.1895665
60711 36145.858 -2573.2828 6391.215700000001 1192.3473000000001 1.4556308 -0.79470029 7.3710788
60711 36565.858 -1722.3234 5422.147900000001 4061.8597999999997 2.5266461 -3.7400675000000003 6.057552800000001
60711 36985.858 -522.9012 3356.0715 6107.428400000001 3.0859888 -5.9257787 3.5205647
60711 37405.858 783.35355 608.01695 6912.5 3.0231224 -6.9190175 0.265399
60711 37825.858 1932.0002 -2262.1998 6323.7020999999995 2.3450944 -6.5027537 -3.0391614000000002
60711 38245.858 2688.6938 -4672.4853 4451.5871 1.1958092999999999 -4.777727700000001 -5.7257411000000005
60711 38665.858 2902.2307 -6138.9653 1677.5898 -0.19664554 -2.0850796999999996 -7.2563129
60711 39085.858 2529.1268 -6364.5733 -1436.4364 -1.549221 1.0286329 -7.316676
60711 39505.858 1645.4468000000002 -5305.2462000000005 -4259.5576 -2.5863533000000003 3.9276828999999998 -5.8984303
60711 39925.858 430.21419000000003 -3177.4183 -6223.602 -3.1006125000000004 6.0286922999999994 -3.2960338
60711 40345.858 -871.37223 -412.00146 -6935.737099999999 -2.9917533 6.9151004 -0.038144349
60711 40765.858 -1998.4156 2435.9884 -6254.8379 -2.2836062000000004 6.4156181 3.2254264
60711 41185.858 -2724.8367000000003 4795.553900000001 -4316.977 -1.1159887000000002 4.6278368 5.845688600000001
60711 41605.858 -2903.8222 6191.6612000000005 -1509.5347 0.27939823 1.9038603 7.293563600000001
60711 42025.858 -2497.8657000000003 6340.3928 1602.3367 1.6209832 -1.208648 7.2702072
60711 42445.858 -1588.234 5210.6613 4390.2295 2.6362505 -4.0786232 5.7772006000000005
60711 42865.858 -358.42008000000004 3030.5679 6290.911700000001 3.1195297 -6.1245147 3.1184461000000003
60711 43285.858 943.6020500000001 240.05255 6921.268099999999 2.9743224 -6.935926800000001 -0.16830896
60711 43705.858 2055.5943 -2598.8611 6154.0241 2.2295698 -6.3500796 -3.423445
60711 44125.858 2752.9796 -4913.2193 4143.402 1.0335326 -4.4812904 -5.9907332
60711 44545.858 2894.1418 -6235.0095 1293.0747 -0.37310061 -1.7043130000000002 -7.348508600000001
60711 44965.858 2450.2194 -6296.302900000001 -1819.3935000000001 -1.704195 1.4168353 -7.2172124
60711 45385.858 1511.6861999999999 -5086.4499000000005 -4563.277700000001 -2.6885591 4.2448009 -5.6276972
60711 45805.858 268.43496999999996 -2851.9044 -6386.706700000001 -3.1297219000000003 6.2114453 -2.9087479
60711 46225.858 -1028.7386 -44.873795 -6925.0221 -2.9419592 6.927116600000001 0.3882644
60711 46645.858 -2119.722 2771.176 -6071.728700000001 -2.1645387 6.2539281 3.6059357
60711 47065.858 -2785.4971 5031.2645 -3997.4957000000004 -0.9511792400000001 4.3237825 6.1032306
60711 47485.858 -2891.4248 6280.1371 -1117.6054 0.45657727000000004 1.5185384 7.3746548
60711 47905.858 -2414.7917 6263.5525 1987.7038 1.7742103 -1.596332 7.1579462000000005
60711 48325.858 -1451.4815 4984.562 4691.251200000001 2.7342315 -4.389387 5.4949865
60711 48745.858 -195.78443 2701.4837 6447.4497 3.1427896 -6.295886800000001 2.7246675000000002
60711 49165.858 1099.3220000000001 -125.31288 6902.7266 2.9187691 -6.9345489 -0.59402468
60711 49585.858 2173.0589 -2926.7446 5964.7167 2.1066386 -6.1770563 -3.7962095
60711 50005.858 2808.5339 -5137.451900000001 3821.7562000000003 0.86767328 -4.171166599999999 -6.2365431
60711 50425.858 2876.6885 -6310.5441 904.1852600000001 -0.54891183 -1.3185345 -7.4172652
60711 50845.858 2363.101 -6207.4801 -2196.7637000000004 -1.8544032 1.8002036000000001 -7.0945521000000005
60711 51265.858 1372.3826999999999 -4850.9345 -4852.5261 -2.7827881000000003 4.548235 -5.3386029
60711 51685.858 104.90023 -2516.8787 -6529.3121 -3.1490266 6.3740252 -2.5116334
60711 52105.858 -1183.6943 322.59724 -6891.8957 -2.8824768 6.9163813 0.81373507
60711 52525.858 -2234.9294 3097.408 -5868.9277 -2.03792 6.071503300000001 3.9745914
60711 52945.858 -2837.6407000000004 5250.5455999999995 -3665.2628 -0.782641 4.0055803999999995 6.3401461
60711 53365.858 -2869.8677000000002 6348.0803 -722.7449 0.63269799 1.1290981 7.4309149
60711 53785.858 -2323.949 6166.6596 2365.6409 1.9219058 -1.9774413 7.0221435
60711 54205.858 -1310.0064 4743.176 4976.1368 2.8235297999999998 -4.684464200000001 5.1955999
60711 54625.858 -32.388288 2365.005 6582.6048 3.1562012 -6.446079800000001 2.3234079000000003
60711 55045.858 1251.7567 -488.78208 6861.9272 2.8541086 -6.9108541 -1.0164055
60711 55465.858 2283.9809 -3244.0404 5756.9669 1.9769645 -5.9846555 -4.1554647000000005
60711 55885.858 2856.5459 -5345.871 3491.7493 0.69925278 -3.8485119 -6.4577558
60711 56305.858 2851.8374 -6367.638400000001 518.25236 -0.72170833 -0.93272327 -7.4585040000000005
60711 56725.858 2270.8881 -6102.7926 -2560.3123 -1.9969814 2.1717408999999996 -6.948883
60711 57145.858 1231.1946 -4605.2617 -5120.8301 -2.8675322000000003 4.8331879 -5.0356183
60711 57565.858 -56.381911 -2180.5249 -6647.7198 -3.1587086 6.5148534 -2.1116534000000002
60711 57985.858 -1332.6832 682.47186 -6835.4926 -2.8151337 6.88549 1.2323003000000001
60711 58405.858 -2341.4038 3408.4314 -5647.3948 -1.9060991 5.8733637 4.328899000000001
60711 58825.858 -2879.4994 5449.2455 -3321.4631 -0.6120265100000001 3.6778651 6.557701
60711 59245.858 -2837.7881 6392.773099999999 -325.11841 0.8075395700000001 0.73742496 7.4654691
60711 59665.858 -2224.0326 6047.5588 2736.9087999999997 2.0648223 -2.3527248 6.864859000000001
60711 60085.858 -1162.1292 4483.7552000000005 5246.1140000000005 2.9049745 -4.9655587 4.8791276
60711 60505.858 133.64473999999998 2017.7948000000001 6697.2462000000005 3.1597841 -6.5759162 1.9131498
60711 60925.858 1402.6008000000002 -853.69029 6799.0691 2.77952 -6.8640234 -1.4367798
60711 61345.858 2389.542 -3553.3949 5530.519700000001 1.8395329 -5.7714605 -4.5010855
